start=new Date('2021-10-08T00:00:00.000Z').valueOf();
sats=[{"DECAY_DATE":null,"MEAN_MOTION_DOT":"0.00002657","REF_FRAME":"TEME","FILE":"3150302","TLE_LINE1":"1 45231U 20012BF  21280.69680340  .00002657  00000-0  23347-4 0  9992","ARG_OF_PERICENTER":"338.2165","REV_AT_EPOCH":"9268","TIME_SYSTEM":"UTC","MEAN_MOTION_DDOT":"0.0000000000000","EPOCH":"2021-10-07T16:43:23.813760","LAUNCH_DATE":"2020-02-17","CLASSIFICATION_TYPE":"U","MEAN_ELEMENT_THEORY":"SGP4","OBJECT_NAME":"STARLINK-1229","MEAN_ANOMALY":"21.8573","ECCENTRICITY":"0.00065420","APOAPSIS":"354.064","OBJECT_ID":"2020-012BF","OBJECT_TYPE":"PAYLOAD","NORAD_CAT_ID":"45231","RA_OF_ASC_NODE":"3.8065","RCS_SIZE":"LARGE","SITE":"AFETR","EPHEMERIS_TYPE":"0","GP_ID":"186510569","COUNTRY_CODE":"US","BSTAR":"0.00002334700000","TLE_LINE2":"2 45231  53.0344   3.8065 0006542 338.2165  21.8573 15.73234182 92680","CENTER_NAME":"EARTH","MEAN_MOTION":"15.73234182","INCLINATION":"53.0344","SEMIMAJOR_AXIS":"6727.798","PERIAPSIS":"345.261","PERIOD":"91.531","ELEMENT_SET_NO":"999"},{"MEAN_MOTION":"15.06398293","CENTER_NAME":"EARTH","TLE_LINE2":"2 45232  53.0551  51.2671 0001740 100.2269 259.8917 15.06398293 92166","ELEMENT_SET_NO":"999","PERIAPSIS":"546.014","PERIOD":"95.592","SEMIMAJOR_AXIS":"6925.354","INCLINATION":"53.0551","SITE":"AFETR","RA_OF_ASC_NODE":"51.2671","RCS_SIZE":"LARGE","OBJECT_TYPE":"PAYLOAD","NORAD_CAT_ID":"45232","BSTAR":"0.00013366000000","COUNTRY_CODE":"US","EPHEMERIS_TYPE":"0","GP_ID":"186509342","ECCENTRICITY":"0.00017400","MEAN_ANOMALY":"259.8917","OBJECT_NAME":"STARLINK-1235","OBJECT_ID":"2020-012BG","APOAPSIS":"548.424","TLE_LINE1":"1 45232U 20012BG  21280.88461927  .00001710  00000-0  13366-3 0  9990","ARG_OF_PERICENTER":"100.2269","FILE":"3150302","REF_FRAME":"TEME","DECAY_DATE":null,"MEAN_MOTION_DOT":"0.00001710","MEAN_ELEMENT_THEORY":"SGP4","LAUNCH_DATE":"2020-02-17","CLASSIFICATION_TYPE":"U","EPOCH":"2021-10-07T21:13:51.104928","MEAN_MOTION_DDOT":"0.0000000000000","TIME_SYSTEM":"UTC","REV_AT_EPOCH":"9216"},{"ARG_OF_PERICENTER":"91.5047","TLE_LINE1":"1 45233U 20012BH  21280.73165719  .00000029  00000-0  20867-4 0  9992","REF_FRAME":"TEME","FILE":"3150302","MEAN_MOTION_DOT":"0.00000029","DECAY_DATE":null,"MEAN_ELEMENT_THEORY":"SGP4","LAUNCH_DATE":"2020-02-17","CLASSIFICATION_TYPE":"U","EPOCH":"2021-10-07T17:33:35.181216","MEAN_MOTION_DDOT":"0.0000000000000","TIME_SYSTEM":"UTC","REV_AT_EPOCH":"9184","ECCENTRICITY":"0.00018040","MEAN_ANOMALY":"268.6149","OBJECT_NAME":"STARLINK-1238","OBJECT_ID":"2020-012BH","APOAPSIS":"548.476","SITE":"AFETR","RCS_SIZE":"LARGE","RA_OF_ASC_NODE":"71.9458","NORAD_CAT_ID":"45233","OBJECT_TYPE":"PAYLOAD","BSTAR":"0.00002086700000","COUNTRY_CODE":"US","GP_ID":"186509086","EPHEMERIS_TYPE":"0","MEAN_MOTION":"15.06395838","CENTER_NAME":"EARTH","TLE_LINE2":"2 45233  53.0562  71.9458 0001804  91.5047 268.6149 15.06395838 91849","ELEMENT_SET_NO":"999","PERIOD":"95.592","PERIAPSIS":"545.977","SEMIMAJOR_AXIS":"6925.361","INCLINATION":"53.0562"},{"SEMIMAJOR_AXIS":"6925.332","INCLINATION":"53.0531","ELEMENT_SET_NO":"999","PERIAPSIS":"546.122","PERIOD":"95.592","CENTER_NAME":"EARTH","TLE_LINE2":"2 45234  53.0531  91.1906 0001551  89.2256 270.8911 15.06405540 91577","MEAN_MOTION":"15.06405540","COUNTRY_CODE":"US","EPHEMERIS_TYPE":"0","GP_ID":"186510343","BSTAR":"0.00015796000000","RA_OF_ASC_NODE":"91.1906","RCS_SIZE":"LARGE","OBJECT_TYPE":"PAYLOAD","NORAD_CAT_ID":"45234","SITE":"AFETR","APOAPSIS":"548.271","OBJECT_ID":"2020-012BJ","OBJECT_NAME":"STARLINK-1243","ECCENTRICITY":"0.00015510","MEAN_ANOMALY":"270.8911","MEAN_MOTION_DDOT":"0.0000000000000","EPOCH":"2021-10-07T21:40:23.544192","TIME_SYSTEM":"UTC","REV_AT_EPOCH":"9157","MEAN_ELEMENT_THEORY":"SGP4","LAUNCH_DATE":"2020-02-17","CLASSIFICATION_TYPE":"U","REF_FRAME":"TEME","FILE":"3150302","MEAN_MOTION_DOT":"0.00002072","DECAY_DATE":null,"TLE_LINE1":"1 45234U 20012BJ  21280.90305028  .00002072  00000-0  15796-3 0  9995","ARG_OF_PERICENTER":"89.2256"},{"SEMIMAJOR_AXIS":"6925.368","INCLINATION":"53.0559","ELEMENT_SET_NO":"999","PERIAPSIS":"545.632","PERIOD":"95.593","CENTER_NAME":"EARTH","TLE_LINE2":"2 45235  53.0559  91.8563 0002312  91.2519 268.8735 15.06393549 91605","MEAN_MOTION":"15.06393549","COUNTRY_CODE":"US","GP_ID":"186510069","EPHEMERIS_TYPE":"0","BSTAR":"-0.00002808500000","RA_OF_ASC_NODE":"91.8563","RCS_SIZE":"LARGE","OBJECT_TYPE":"PAYLOAD","NORAD_CAT_ID":"45235","SITE":"AFETR","APOAPSIS":"548.834","OBJECT_ID":"2020-012BK","OBJECT_NAME":"STARLINK-1246","ECCENTRICITY":"0.00023120","MEAN_ANOMALY":"268.8735","MEAN_MOTION_DDOT":"0.0000000000000","EPOCH":"2021-10-07T18:08:05.043552","TIME_SYSTEM":"UTC","REV_AT_EPOCH":"9160","MEAN_ELEMENT_THEORY":"SGP4","LAUNCH_DATE":"2020-02-17","CLASSIFICATION_TYPE":"U","REF_FRAME":"TEME","FILE":"3150302","DECAY_DATE":null,"MEAN_MOTION_DOT":"-0.00000700","TLE_LINE1":"1 45235U 20012BK  21280.75561393 -.00000700  00000-0 -28085-4 0  9992","ARG_OF_PERICENTER":"91.2519"},{"COUNTRY_CODE":"US","EPHEMERIS_TYPE":"0","GP_ID":"186508843","BSTAR":"0.00002177300000","RCS_SIZE":"LARGE","RA_OF_ASC_NODE":"51.9392","OBJECT_TYPE":"PAYLOAD","NORAD_CAT_ID":"45236","SITE":"AFETR","SEMIMAJOR_AXIS":"6925.355","INCLINATION":"53.0546","ELEMENT_SET_NO":"999","PERIOD":"95.592","PERIAPSIS":"546.186","CENTER_NAME":"EARTH","TLE_LINE2":"2 45236  53.0546  51.9392 0001494 104.6267 255.4888 15.06397748 92133","MEAN_MOTION":"15.06397748","MEAN_MOTION_DDOT":"0.0000000000000","EPOCH":"2021-10-07T17:41:32.311392","TIME_SYSTEM":"UTC","REV_AT_EPOCH":"9213","MEAN_ELEMENT_THEORY":"SGP4","CLASSIFICATION_TYPE":"U","LAUNCH_DATE":"2020-02-17","FILE":"3150302","REF_FRAME":"TEME","MEAN_MOTION_DOT":"0.00000043","DECAY_DATE":null,"ARG_OF_PERICENTER":"104.6267","TLE_LINE1":"1 45236U 20012BL  21280.73717953  .00000043  00000-0  21773-4 0  9991","APOAPSIS":"548.255","OBJECT_ID":"2020-012BL","OBJECT_NAME":"STARLINK-1247","ECCENTRICITY":"0.00014940","MEAN_ANOMALY":"255.4888"},{"SITE":"AFETR","RA_OF_ASC_NODE":"52.4378","RCS_SIZE":"LARGE","OBJECT_TYPE":"PAYLOAD","NORAD_CAT_ID":"45237","BSTAR":"0.00015843000000","COUNTRY_CODE":"US","GP_ID":"186509586","EPHEMERIS_TYPE":"0","MEAN_MOTION":"15.06404997","CENTER_NAME":"EARTH","TLE_LINE2":"2 45237  53.0558  52.4378 0001741 105.5523 254.5658 15.06404997 92126","ELEMENT_SET_NO":"999","PERIAPSIS":"545.993","PERIOD":"95.592","SEMIMAJOR_AXIS":"6925.333","INCLINATION":"53.0558","TLE_LINE1":"1 45237U 20012BM  21280.62660180  .00002079  00000-0  15843-3 0  9990","ARG_OF_PERICENTER":"105.5523","REF_FRAME":"TEME","FILE":"3150302","DECAY_DATE":null,"MEAN_MOTION_DOT":"0.00002079","MEAN_ELEMENT_THEORY":"SGP4","CLASSIFICATION_TYPE":"U","LAUNCH_DATE":"2020-02-17","MEAN_MOTION_DDOT":"0.0000000000000","EPOCH":"2021-10-07T15:02:18.395520","REV_AT_EPOCH":"9212","TIME_SYSTEM":"UTC","ECCENTRICITY":"0.00017410","MEAN_ANOMALY":"254.5658","OBJECT_NAME":"STARLINK-1270","OBJECT_ID":"2020-012BM","APOAPSIS":"548.404"},{"BSTAR":"0.00014219000000","EPHEMERIS_TYPE":"0","GP_ID":"186508857","COUNTRY_CODE":"US","SITE":"AFETR","OBJECT_TYPE":"PAYLOAD","NORAD_CAT_ID":"45360","RA_OF_ASC_NODE":"181.1272","RCS_SIZE":"LARGE","PERIAPSIS":"546.034","PERIOD":"95.592","ELEMENT_SET_NO":"999","INCLINATION":"53.0543","SEMIMAJOR_AXIS":"6925.356","MEAN_MOTION":"15.06397670","TLE_LINE2":"2 45360  53.0543 181.1272 0001713  77.9344 282.1837 15.06397670 86906","CENTER_NAME":"EARTH","LAUNCH_DATE":"2020-03-18","CLASSIFICATION_TYPE":"U","MEAN_ELEMENT_THEORY":"SGP4","TIME_SYSTEM":"UTC","REV_AT_EPOCH":"8690","EPOCH":"2021-10-07T22:00:18.468288","MEAN_MOTION_DDOT":"0.0000000000000","TLE_LINE1":"1 45360U 20019A   21280.91688042  .00001837  00000-0  14219-3 0  9990","ARG_OF_PERICENTER":"77.9344","MEAN_MOTION_DOT":"0.00001837","DECAY_DATE":null,"FILE":"3150302","REF_FRAME":"TEME","OBJECT_ID":"2020-019A","APOAPSIS":"548.407","MEAN_ANOMALY":"282.1837","ECCENTRICITY":"0.00017130","OBJECT_NAME":"STARLINK-1279"},{"OBJECT_ID":"2020-019B","APOAPSIS":"548.188","MEAN_ANOMALY":"280.3724","ECCENTRICITY":"0.00014040","OBJECT_NAME":"STARLINK-1301","CLASSIFICATION_TYPE":"U","LAUNCH_DATE":"2020-03-18","MEAN_ELEMENT_THEORY":"SGP4","REV_AT_EPOCH":"8677","TIME_SYSTEM":"UTC","MEAN_MOTION_DDOT":"0.0000000000000","EPOCH":"2021-10-07T21:43:00.693696","TLE_LINE1":"1 45361U 20019B   21280.90486914 -.00003679  00000-0 -22824-3 0  9993","ARG_OF_PERICENTER":"79.7423","DECAY_DATE":null,"MEAN_MOTION_DOT":"-0.00003679","FILE":"3150302","REF_FRAME":"TEME","PERIAPSIS":"546.244","PERIOD":"95.592","ELEMENT_SET_NO":"999","INCLINATION":"53.0535","SEMIMAJOR_AXIS":"6925.351","MEAN_MOTION":"15.06399174","TLE_LINE2":"2 45361  53.0535 191.1809 0001404  79.7423 280.3724 15.06399174 86771","CENTER_NAME":"EARTH","BSTAR":"-0.00022824000000","EPHEMERIS_TYPE":"0","GP_ID":"186509600","COUNTRY_CODE":"US","SITE":"AFETR","NORAD_CAT_ID":"45361","OBJECT_TYPE":"PAYLOAD","RA_OF_ASC_NODE":"191.1809","RCS_SIZE":"LARGE"},{"ECCENTRICITY":"0.00018320","MEAN_ANOMALY":"284.3620","OBJECT_NAME":"STARLINK-1306","OBJECT_ID":"2020-019C","APOAPSIS":"548.454","ARG_OF_PERICENTER":"75.7573","TLE_LINE1":"1 45362U 20019C   21280.95095964  .00001243  00000-0  10231-3 0  9992","REF_FRAME":"TEME","FILE":"3150302","MEAN_MOTION_DOT":"0.00001243","DECAY_DATE":null,"MEAN_ELEMENT_THEORY":"SGP4","LAUNCH_DATE":"2020-03-18","CLASSIFICATION_TYPE":"U","EPOCH":"2021-10-07T22:49:22.912896","MEAN_MOTION_DDOT":"0.0000000000000","TIME_SYSTEM":"UTC","REV_AT_EPOCH":"8649","MEAN_MOTION":"15.06409199","CENTER_NAME":"EARTH","TLE_LINE2":"2 45362  53.0538 210.9755 0001832  75.7573 284.3620 15.06409199 86499","ELEMENT_SET_NO":"999","PERIOD":"95.592","PERIAPSIS":"545.917","SEMIMAJOR_AXIS":"6925.320","INCLINATION":"53.0538","SITE":"AFETR","RCS_SIZE":"LARGE","RA_OF_ASC_NODE":"210.9755","NORAD_CAT_ID":"45362","OBJECT_TYPE":"PAYLOAD","BSTAR":"0.00010231000000","COUNTRY_CODE":"US","GP_ID":"186509857","EPHEMERIS_TYPE":"0"}];
